{"type": "FeatureCollection", "features": [ {"type": "Feature", "properties": {"norad_id": 34823, "name": "COSMOS 2251 DEB", "group": "cosmos-2251-debris", "lat": 48.34373297904293, "lon": -101.07948492586424, "alt_km": 637.7177233641014, "timestamp": "2025-12-15T04:01:20.847269+00:00", "meta": {"OBJECT_NAME": "COSMOS 2251 DEB", "OBJECT_ID": "1993-036ABN", "EPOCH": "2025-12-14T07:37:20.656416", "MEAN_MOTION": 14.54945629, "ECCENTRICITY": 0.01545753, "INCLINATION": 74.0412, "RA_OF_ASC_NODE": 99.2928, "ARG_OF_PERICENTER": 183.6864, "MEAN_ANOMALY": 176.3176, "EPHEMERIS_TYPE": 0, "CLASSIFICATION_TYPE": "U", "NORAD_CAT_ID": 34823, "ELEMENT_SET_NO": 999, "REV_AT_EPOCH": 88404, "BSTAR": 0.00085725562, "MEAN_MOTION_DOT": 4.3e-05, "MEAN_MOTION_DDOT": 0}, "tle": {"line1": "1 34823U 93036ABN 25348.31760019  .00004300  00000+0  85726-3 0  9997", "line2": "2 34823  74.0412  99.2928 0154575 183.6864 176.3176 14.54945629884046"}}, "geometry": {"type": "Point", "coordinates": [-101.07948492586424, 48.34373297904293]}}, {"type": "Feature", "properties": {"norad_id": 34845, "name": "COSMOS 2251 DEB", "group": "cosmos-2251-debris", "lat": 18.62358700775904, "lon": 149.3613174108912, "alt_km": 735.1070462589678, "timestamp": "2025-12-15T04:01:20.847280+00:00", "meta": {"OBJECT_NAME": "COSMOS 2251 DEB", "OBJECT_ID": "1993-036ABP", "EPOCH": "2025-12-09T20:04:05.418048", "MEAN_MOTION": 14.45850049, "ECCENTRICITY": 0.00222586, "INCLINATION": 74.0237, "RA_OF_ASC_NODE": 153.7694, "ARG_OF_PERICENTER": 315.2139, "MEAN_ANOMALY": 44.7222, "EPHEMERIS_TYPE": 0, "CLASSIFICATION_TYPE": "U", "NORAD_CAT_ID": 34845, "ELEMENT_SET_NO": 999, "REV_AT_EPOCH": 87424, "BSTAR": 0.00046671234, "MEAN_MOTION_DOT": 1.636e-05, "MEAN_MOTION_DDOT": 0}, "tle": {"line1": "1 34845U 93036ABP 25343.83617382  .00001636  00000+0  46671-3 0  9992", "line2": "2 34845  74.0237 153.7694 0022258 315.2139  44.7222 14.45850049874243"}}, "geometry": {"type": "Point", "coordinates": [149.3613174108912, 18.62358700775904]}}, {"type": "Feature", "properties": {"norad_id": 34846, "name": "COSMOS 2251 DEB", "group": "cosmos-2251-debris", "lat": -28.455510341421864, "lon": -111.69210339591945, "alt_km": 721.7515288845261, "timestamp": "2025-12-15T04:01:20.847290+00:00", "meta": {"OBJECT_NAME": "COSMOS 2251 DEB", "OBJECT_ID": "1993-036ABQ", "EPOCH": "2025-12-14T04:55:57.499968", "MEAN_MOTION": 14.47228462, "ECCENTRICITY": 0.00261104, "INCLINATION": 74.0308, "RA_OF_ASC_NODE": 259.034, "ARG_OF_PERICENTER": 325.2527, "MEAN_ANOMALY": 34.6925, "EPHEMERIS_TYPE": 0, "CLASSIFICATION_TYPE": "U", "NORAD_CAT_ID": 34846, "ELEMENT_SET_NO": 999, "REV_AT_EPOCH": 87425, "BSTAR": 0.00096837074, "MEAN_MOTION_DOT": 3.528e-05, "MEAN_MOTION_DDOT": 0}, "tle": {"line1": "1 34846U 93036ABQ 25348.20552662  .00003528  00000+0  96837-3 0  9999", "line2": "2 34846  74.0308 259.0340 0026110 325.2527  34.6925 14.47228462874253"}}, "geometry": {"type": "Point", "coordinates": [-111.69210339591945, -28.455510341421864]}}, {"type": "Feature", "properties": {"norad_id": 34852, "name": "COSMOS 2251 DEB", "group": "cosmos-2251-debris", "lat": -50.190373593968374, "lon": -121.58356628630528, "alt_km": 768.1158142320446, "timestamp": "2025-12-15T04:01:20.847301+00:00", "meta": {"OBJECT_NAME": "COSMOS 2251 DEB", "OBJECT_ID": "1993-036ABW", "EPOCH": "2025-12-14T03:12:21.572928", "MEAN_MOTION": 14.37006315, "ECCENTRICITY": 0.00162682, "INCLINATION": 74.033, "RA_OF_ASC_NODE": 260.4088, "ARG_OF_PERICENTER": 3.2722, "MEAN_ANOMALY": 356.8534, "EPHEMERIS_TYPE": 0, "CLASSIFICATION_TYPE": "U", "NORAD_CAT_ID": 34852, "ELEMENT_SET_NO": 999, "REV_AT_EPOCH": 87554, "BSTAR": 0.00015722406, "MEAN_MOTION_DOT": 4.4e-06, "MEAN_MOTION_DDOT": 0}, "tle": {"line1": "1 34852U 93036ABW 25348.13358302  .00000440  00000+0  15722-3 0  9997", "line2": "2 34852  74.0330 260.4088 0016268   3.2722 356.8534 14.37006315875541"}}, "geometry": {"type": "Point", "coordinates": [-121.58356628630528, -50.190373593968374]}}, {"type": "Feature", "properties": {"norad_id": 34854, "name": "COSMOS 2251 DEB", "group": "cosmos-2251-debris", "lat": -15.696096275557382, "lon": -21.558799585206962, "alt_km": 627.1730620712378, "timestamp": "2025-12-15T04:01:20.847311+00:00", "meta": {"OBJECT_NAME": "COSMOS 2251 DEB", "OBJECT_ID": "1993-036ABY", "EPOCH": "2025-12-12T18:13:14.177568", "MEAN_MOTION": 14.76625947, "ECCENTRICITY": 0.00661438, "INCLINATION": 74.0288, "RA_OF_ASC_NODE": 158.5442, "ARG_OF_PERICENTER": 270.2181, "MEAN_ANOMALY": 89.1414, "EPHEMERIS_TYPE": 0, "CLASSIFICATION_TYPE": "U", "NORAD_CAT_ID": 34854, "ELEMENT_SET_NO": 999, "REV_AT_EPOCH": 71882, "BSTAR": 0.0010403851, "MEAN_MOTION_DOT": 7.508e-05, "MEAN_MOTION_DDOT": 0}, "tle": {"line1": "1 34854U 93036ABY 25346.75919187  .00007508  00000+0  10404-2 0  9992", "line2": "2 34854  74.0288 158.5442 0066143 270.2181  89.1414 14.76625947718829"}}, "geometry": {"type": "Point", "coordinates": [-21.558799585206962, -15.696096275557382]}}, {"type": "Feature", "properties": {"norad_id": 34856, "name": "COSMOS 2251 DEB", "group": "cosmos-2251-debris", "lat": 11.349103013010595, "lon": -103.44556307013927, "alt_km": 534.096375791295, "timestamp": "2025-12-15T04:01:20.847322+00:00", "meta": {"OBJECT_NAME": "COSMOS 2251 DEB", "OBJECT_ID": "1993-036ACA", "EPOCH": "2025-12-14T08:29:05.405856", "MEAN_MOTION": 15.06182181, "ECCENTRICITY": 0.00327011, "INCLINATION": 73.9959, "RA_OF_ASC_NODE": 81.5308, "ARG_OF_PERICENTER": 219.493, "MEAN_ANOMALY": 216.5961, "EPHEMERIS_TYPE": 0, "CLASSIFICATION_TYPE": "U", "NORAD_CAT_ID": 34856, "ELEMENT_SET_NO": 999, "REV_AT_EPOCH": 89136, "BSTAR": 0.0020040761, "MEAN_MOTION_DOT": 0.000298, "MEAN_MOTION_DDOT": 0}, "tle": {"line1": "1 34856U 93036ACA 25348.35353479  .00029800  00000+0  20041-2 0  9995", "line2": "2 34856  73.9959  81.5308 0032701 219.4930 216.5961 15.06182181891366"}}, "geometry": {"type": "Point", "coordinates": [-103.44556307013927, 11.349103013010595]}}, {"type": "Feature", "properties": {"norad_id": 34857, "name": "COSMOS 2251 DEB", "group": "cosmos-2251-debris", "lat": 51.9366390208451, "lon": -99.27466024044914, "alt_km": 700.22501270059, "timestamp": "2025-12-15T04:01:20.847332+00:00", "meta": {"OBJECT_NAME": "COSMOS 2251 DEB", "OBJECT_ID": "1993-036ACB", "EPOCH": "2025-12-14T03:00:54.748224", "MEAN_MOTION": 14.58912788, "ECCENTRICITY": 0.00657914, "INCLINATION": 74.0151, "RA_OF_ASC_NODE": 104.1848, "ARG_OF_PERICENTER": 228.4085, "MEAN_ANOMALY": 186.9923, "EPHEMERIS_TYPE": 0, "CLASSIFICATION_TYPE": "U", "NORAD_CAT_ID": 34857, "ELEMENT_SET_NO": 999, "REV_AT_EPOCH": 87921, "BSTAR": 0.0013003989, "MEAN_MOTION_DOT": 6.254e-05, "MEAN_MOTION_DDOT": 0}, "tle": {"line1": "1 34857U 93036ACB 25348.12563366  .00006254  00000+0  13004-2 0  9998", "line2": "2 34857  74.0151 104.1848 0065791 228.4085 186.9923 14.58912788879218"}}, "geometry": {"type": "Point", "coordinates": [-99.27466024044914, 51.9366390208451]}}, {"type": "Feature", "properties": {"norad_id": 34859, "name": "COSMOS 2251 DEB", "group": "cosmos-2251-debris", "lat": -27.433349236239785, "lon": 163.15514572616615, "alt_km": 525.9415909241634, "timestamp": "2025-12-15T04:01:20.847342+00:00", "meta": {"OBJECT_NAME": "COSMOS 2251 DEB", "OBJECT_ID": "1993-036ACD", "EPOCH": "2025-12-13T10:27:28.319616", "MEAN_MOTION": 15.14950815, "ECCENTRICITY": 0.00020891, "INCLINATION": 74.0317, "RA_OF_ASC_NODE": 338.2099, "ARG_OF_PERICENTER": 342.6349, "MEAN_ANOMALY": 143.1101, "EPHEMERIS_TYPE": 0, "CLASSIFICATION_TYPE": "U", "NORAD_CAT_ID": 34859, "ELEMENT_SET_NO": 999, "REV_AT_EPOCH": 88369, "BSTAR": 0.0080515741, "MEAN_MOTION_DOT": 0.00153394, "MEAN_MOTION_DDOT": 0}, "tle": {"line1": "1 34859U 93036ACD 25347.43574444  .00153394  00000+0  80516-2 0  9992", "line2": "2 34859  74.0317 338.2099 0002089 342.6349 143.1101 15.14950815883691"}}, "geometry": {"type": "Point", "coordinates": [163.15514572616615, -27.433349236239785]}}, {"type": "Feature", "properties": {"norad_id": 34861, "name": "COSMOS 2251 DEB", "group": "cosmos-2251-debris", "lat": 6.420647863425171, "lon": 47.73964845684216, "alt_km": 556.0224475990326, "timestamp": "2025-12-15T04:01:20.847353+00:00", "meta": {"OBJECT_NAME": "COSMOS 2251 DEB", "OBJECT_ID": "1993-036ACF", "EPOCH": "2025-12-14T04:09:57.180672", "MEAN_MOTION": 15.0269931, "ECCENTRICITY": 0.00072744, "INCLINATION": 74.0186, "RA_OF_ASC_NODE": 47.9215, "ARG_OF_PERICENTER": 43.3979, "MEAN_ANOMALY": 348.2389, "EPHEMERIS_TYPE": 0, "CLASSIFICATION_TYPE": "U", "NORAD_CAT_ID": 34861, "ELEMENT_SET_NO": 999, "REV_AT_EPOCH": 88114, "BSTAR": 0.0023759438, "MEAN_MOTION_DOT": 0.00031847, "MEAN_MOTION_DDOT": 0}, "tle": {"line1": "1 34861U 93036ACF 25348.17357848  .00031847  00000+0  23759-2 0  9998", "line2": "2 34861  74.0186  47.9215 0007274  43.3979 348.2389 15.02699310881148"}}, "geometry": {"type": "Point", "coordinates": [47.73964845684216, 6.420647863425171]}}, {"type": "Feature", "properties": {"norad_id": 34874, "name": "COSMOS 2251 DEB", "group": "cosmos-2251-debris", "lat": 71.5363154280678, "lon": -169.68763310099638, "alt_km": 727.1740827183148, "timestamp": "2025-12-15T04:01:20.847363+00:00", "meta": {"OBJECT_NAME": "COSMOS 2251 DEB", "OBJECT_ID": "1993-036ACM", "EPOCH": "2025-12-14T05:58:36.802848", "MEAN_MOTION": 14.36320891, "ECCENTRICITY": 0.00509122, "INCLINATION": 74.0396, "RA_OF_ASC_NODE": 70.9927, "ARG_OF_PERICENTER": 95.8314, "MEAN_ANOMALY": 295.7119, "EPHEMERIS_TYPE": 0, "CLASSIFICATION_TYPE": "U", "NORAD_CAT_ID": 34874, "ELEMENT_SET_NO": 999, "REV_AT_EPOCH": 87066, "BSTAR": 0.00095657617, "MEAN_MOTION_DOT": 2.814e-05, "MEAN_MOTION_DDOT": 0}, "tle": {"line1": "1 34874U 93036ACM 25348.24903707  .00002814  00000+0  95658-3 0  9991", "line2": "2 34874  74.0396  70.9927 0050912  95.8314 295.7119 14.36320891870666"}}, "geometry": {"type": "Point", "coordinates": [-169.68763310099638, 71.5363154280678]}}]}